{"type": "FeatureCollection", "features": [ {"type": "Feature", "properties": {"norad_id": 66959, "name": "STARLINK-35887", "group": "last-30-days", "lat": 0.1616247424696709, "lon": -99.0559752466984, "alt_km": 392.4303868511406, "timestamp": "2025-12-26T21:25:51.735683+00:00", "meta": {"OBJECT_NAME": "STARLINK-35887", "OBJECT_ID": "2025-288A", "EPOCH": "2025-12-26T14:00:04.000032", "MEAN_MOTION": 15.59735356, "ECCENTRICITY": 0.00010243, "INCLINATION": 43.0001, "RA_OF_ASC_NODE": 82.9519, "ARG_OF_PERICENTER": 283.6165, "MEAN_ANOMALY": 316.4149, "EPHEMERIS_TYPE": 0, "CLASSIFICATION_TYPE": "U", "NORAD_CAT_ID": 66959, "ELEMENT_SET_NO": 999, "REV_AT_EPOCH": 405, "BSTAR": -0.026823237, "MEAN_MOTION_DOT": -0.01943418, "MEAN_MOTION_DDOT": 0}, "tle": {"line1": "1 66959U 25288A   25360.58337963 -.01943418  00000+0 -26823-1 0  9993", "line2": "2 66959  43.0001  82.9519 0001024 283.6165 316.4149 15.59735356  4053"}}, "geometry": {"type": "Point", "coordinates": [-99.0559752466984, 0.1616247424696709]}}, {"type": "Feature", "properties": {"norad_id": 66960, "name": "STARLINK-35879", "group": "last-30-days", "lat": -1.147604598631727, "lon": -97.65562910934074, "alt_km": 392.4107839900007, "timestamp": "2025-12-26T21:25:51.735693+00:00", "meta": {"OBJECT_NAME": "STARLINK-35879", "OBJECT_ID": "2025-288B", "EPOCH": "2025-12-26T14:00:04.000032", "MEAN_MOTION": 15.59736589, "ECCENTRICITY": 8.713e-05, "INCLINATION": 42.9998, "RA_OF_ASC_NODE": 82.947, "ARG_OF_PERICENTER": 285.837, "MEAN_ANOMALY": 316.1132, "EPHEMERIS_TYPE": 0, "CLASSIFICATION_TYPE": "U", "NORAD_CAT_ID": 66960, "ELEMENT_SET_NO": 999, "REV_AT_EPOCH": 405, "BSTAR": -0.026843662, "MEAN_MOTION_DOT": -0.01944701, "MEAN_MOTION_DDOT": 0}, "tle": {"line1": "1 66960U 25288B   25360.58337963 -.01944701  00000+0 -26844-1 0  9994", "line2": "2 66960  42.9998  82.9470 0000871 285.8370 316.1132 15.59736589  4053"}}, "geometry": {"type": "Point", "coordinates": [-97.65562910934074, -1.147604598631727]}}, {"type": "Feature", "properties": {"norad_id": 66961, "name": "STARLINK-35761", "group": "last-30-days", "lat": -2.4524792134218445, "lon": -96.25773086248634, "alt_km": 392.54456625951843, "timestamp": "2025-12-26T21:25:51.735705+00:00", "meta": {"OBJECT_NAME": "STARLINK-35761", "OBJECT_ID": "2025-288C", "EPOCH": "2025-12-26T14:00:04.000032", "MEAN_MOTION": 15.5973408, "ECCENTRICITY": 9.203e-05, "INCLINATION": 42.9999, "RA_OF_ASC_NODE": 82.9423, "ARG_OF_PERICENTER": 284.7666, "MEAN_ANOMALY": 319.1003, "EPHEMERIS_TYPE": 0, "CLASSIFICATION_TYPE": "U", "NORAD_CAT_ID": 66961, "ELEMENT_SET_NO": 999, "REV_AT_EPOCH": 405, "BSTAR": -0.026779907, "MEAN_MOTION_DOT": -0.01940504, "MEAN_MOTION_DDOT": 0}, "tle": {"line1": "1 66961U 25288C   25360.58337963 -.01940504  00000+0 -26780-1 0  9991", "line2": "2 66961  42.9999  82.9423 0000920 284.7666 319.1003 15.59734080  4058"}}, "geometry": {"type": "Point", "coordinates": [-96.25773086248634, -2.4524792134218445]}}, {"type": "Feature", "properties": {"norad_id": 66962, "name": "STARLINK-35874", "group": "last-30-days", "lat": -3.7565585281184255, "lon": -94.85647770759827, "alt_km": 392.72828603832386, "timestamp": "2025-12-26T21:25:51.735716+00:00", "meta": {"OBJECT_NAME": "STARLINK-35874", "OBJECT_ID": "2025-288D", "EPOCH": "2025-12-26T14:00:04.000032", "MEAN_MOTION": 15.59735579, "ECCENTRICITY": 0.00010314, "INCLINATION": 43, "RA_OF_ASC_NODE": 82.9375, "ARG_OF_PERICENTER": 276.996, "MEAN_ANOMALY": 328.7879, "EPHEMERIS_TYPE": 0, "CLASSIFICATION_TYPE": "U", "NORAD_CAT_ID": 66962, "ELEMENT_SET_NO": 999, "REV_AT_EPOCH": 405, "BSTAR": -0.026832819, "MEAN_MOTION_DOT": -0.01944048, "MEAN_MOTION_DDOT": 0}, "tle": {"line1": "1 66962U 25288D   25360.58337963 -.01944048  00000+0 -26833-1 0  9998", "line2": "2 66962  43.0000  82.9375 0001031 276.9960 328.7879 15.59735579  4055"}}, "geometry": {"type": "Point", "coordinates": [-94.85647770759827, -3.7565585281184255]}}, {"type": "Feature", "properties": {"norad_id": 66963, "name": "STARLINK-36133", "group": "last-30-days", "lat": -5.0585838640194325, "lon": -93.45079935740536, "alt_km": 392.8744566662017, "timestamp": "2025-12-26T21:25:51.735728+00:00", "meta": {"OBJECT_NAME": "STARLINK-36133", "OBJECT_ID": "2025-288E", "EPOCH": "2025-12-26T14:00:04.000032", "MEAN_MOTION": 15.59735019, "ECCENTRICITY": 0.00010756, "INCLINATION": 43.0001, "RA_OF_ASC_NODE": 82.9327, "ARG_OF_PERICENTER": 277.6852, "MEAN_ANOMALY": 330.017, "EPHEMERIS_TYPE": 0, "CLASSIFICATION_TYPE": "U", "NORAD_CAT_ID": 66963, "ELEMENT_SET_NO": 999, "REV_AT_EPOCH": 405, "BSTAR": -0.026853455, "MEAN_MOTION_DOT": -0.01945355, "MEAN_MOTION_DDOT": 0}, "tle": {"line1": "1 66963U 25288E   25360.58337963 -.01945355  00000+0 -26853-1 0  9993", "line2": "2 66963  43.0001  82.9327 0001075 277.6852 330.0170 15.59735019  4059"}}, "geometry": {"type": "Point", "coordinates": [-93.45079935740536, -5.0585838640194325]}}, {"type": "Feature", "properties": {"norad_id": 66964, "name": "STARLINK-36104", "group": "last-30-days", "lat": -6.357141489370732, "lon": -92.04030315395543, "alt_km": 393.0182495772342, "timestamp": "2025-12-26T21:25:51.735739+00:00", "meta": {"OBJECT_NAME": "STARLINK-36104", "OBJECT_ID": "2025-288F", "EPOCH": "2025-12-26T14:00:04.000032", "MEAN_MOTION": 15.59737923, "ECCENTRICITY": 0.00010932, "INCLINATION": 43.0002, "RA_OF_ASC_NODE": 82.9275, "ARG_OF_PERICENTER": 278.8826, "MEAN_ANOMALY": 330.7339, "EPHEMERIS_TYPE": 0, "CLASSIFICATION_TYPE": "U", "NORAD_CAT_ID": 66964, "ELEMENT_SET_NO": 999, "REV_AT_EPOCH": 405, "BSTAR": -0.026894827, "MEAN_MOTION_DOT": -0.01948195, "MEAN_MOTION_DDOT": 0}, "tle": {"line1": "1 66964U 25288F   25360.58337963 -.01948195  00000+0 -26895-1 0  9995", "line2": "2 66964  43.0002  82.9275 0001093 278.8826 330.7339 15.59737923  4057"}}, "geometry": {"type": "Point", "coordinates": [-92.04030315395543, -6.357141489370732]}}, {"type": "Feature", "properties": {"norad_id": 66965, "name": "STARLINK-36067", "group": "last-30-days", "lat": -7.65341360333257, "lon": -90.61969889688952, "alt_km": 393.0714624602688, "timestamp": "2025-12-26T21:25:51.735749+00:00", "meta": {"OBJECT_NAME": "STARLINK-36067", "OBJECT_ID": "2025-288G", "EPOCH": "2025-12-26T14:00:04.000032", "MEAN_MOTION": 15.59740518, "ECCENTRICITY": 9.675e-05, "INCLINATION": 42.9995, "RA_OF_ASC_NODE": 82.9233, "ARG_OF_PERICENTER": 283.9906, "MEAN_ANOMALY": 327.5426, "EPHEMERIS_TYPE": 0, "CLASSIFICATION_TYPE": "U", "NORAD_CAT_ID": 66965, "ELEMENT_SET_NO": 999, "REV_AT_EPOCH": 405, "BSTAR": -0.026971172, "MEAN_MOTION_DOT": -0.01953145, "MEAN_MOTION_DDOT": 0}, "tle": {"line1": "1 66965U 25288G   25360.58337963 -.01953145  00000+0 -26971-1 0  9992", "line2": "2 66965  42.9995  82.9233 0000967 283.9906 327.5426 15.59740518  4051"}}, "geometry": {"type": "Point", "coordinates": [-90.61969889688952, -7.65341360333257]}}, {"type": "Feature", "properties": {"norad_id": 66966, "name": "STARLINK-36139", "group": "last-30-days", "lat": -8.942483293654325, "lon": -89.19444487355022, "alt_km": 393.2365191189356, "timestamp": "2025-12-26T21:25:51.735759+00:00", "meta": {"OBJECT_NAME": "STARLINK-36139", "OBJECT_ID": "2025-288H", "EPOCH": "2025-12-26T14:00:04.000032", "MEAN_MOTION": 15.59739222, "ECCENTRICITY": 0.0001134, "INCLINATION": 42.9998, "RA_OF_ASC_NODE": 82.9181, "ARG_OF_PERICENTER": 277.618, "MEAN_ANOMALY": 335.8335, "EPHEMERIS_TYPE": 0, "CLASSIFICATION_TYPE": "U", "NORAD_CAT_ID": 66966, "ELEMENT_SET_NO": 999, "REV_AT_EPOCH": 405, "BSTAR": -0.026982232, "MEAN_MOTION_DOT": -0.01953874, "MEAN_MOTION_DDOT": 0}, "tle": {"line1": "1 66966U 25288H   25360.58337963 -.01953874  00000+0 -26982-1 0  9994", "line2": "2 66966  42.9998  82.9181 0001134 277.6180 335.8335 15.59739222  4059"}}, "geometry": {"type": "Point", "coordinates": [-89.19444487355022, -8.942483293654325]}}, {"type": "Feature", "properties": {"norad_id": 66967, "name": "STARLINK-36136", "group": "last-30-days", "lat": -10.229335730362436, "lon": -87.7540625601881, "alt_km": 393.29185520856754, "timestamp": "2025-12-26T21:25:51.735771+00:00", "meta": {"OBJECT_NAME": "STARLINK-36136", "OBJECT_ID": "2025-288J", "EPOCH": "2025-12-26T14:00:04.000032", "MEAN_MOTION": 15.59735255, "ECCENTRICITY": 0.00010456, "INCLINATION": 42.9996, "RA_OF_ASC_NODE": 82.914, "ARG_OF_PERICENTER": 274.3701, "MEAN_ANOMALY": 341.0017, "EPHEMERIS_TYPE": 0, "CLASSIFICATION_TYPE": "U", "NORAD_CAT_ID": 66967, "ELEMENT_SET_NO": 999, "REV_AT_EPOCH": 405, "BSTAR": -0.026878119, "MEAN_MOTION_DOT": -0.01946923, "MEAN_MOTION_DDOT": 0}, "tle": {"line1": "1 66967U 25288J   25360.58337963 -.01946923  00000+0 -26878-1 0  9996", "line2": "2 66967  42.9996  82.9140 0001045 274.3701 341.0017 15.59735255  4055"}}, "geometry": {"type": "Point", "coordinates": [-87.7540625601881, -10.229335730362436]}}, {"type": "Feature", "properties": {"norad_id": 66968, "name": "STARLINK-36152", "group": "last-30-days", "lat": -11.507791079990016, "lon": -86.30606377099465, "alt_km": 393.4855903310854, "timestamp": "2025-12-26T21:25:51.735781+00:00", "meta": {"OBJECT_NAME": "STARLINK-36152", "OBJECT_ID": "2025-288K", "EPOCH": "2025-12-26T14:00:04.000032", "MEAN_MOTION": 15.59741556, "ECCENTRICITY": 9.65e-05, "INCLINATION": 43, "RA_OF_ASC_NODE": 82.9083, "ARG_OF_PERICENTER": 288.7615, "MEAN_ANOMALY": 328.5236, "EPHEMERIS_TYPE": 0, "CLASSIFICATION_TYPE": "U", "NORAD_CAT_ID": 66968, "ELEMENT_SET_NO": 999, "REV_AT_EPOCH": 405, "BSTAR": -0.027011738, "MEAN_MOTION_DOT": -0.01955793, "MEAN_MOTION_DDOT": 0}, "tle": {"line1": "1 66968U 25288K   25360.58337963 -.01955793  00000+0 -27012-1 0  9993", "line2": "2 66968  43.0000  82.9083 0000965 288.7615 328.5236 15.59741556  4057"}}, "geometry": {"type": "Point", "coordinates": [-86.30606377099465, -11.507791079990016]}}]}